ONEWEB-0267             
1 48985U 21060U   25316.85342792  .00000044  00000+0  80325-4 0  9999
2 48985  87.9007 271.8568 0002043  86.9992 273.1373 13.16593959211120
ONEWEB-0268             
1 48986U 21060V   25316.82174646  .00000083  00000+0  18292-3 0  9994
2 48986  87.9009 271.8711 0001858  82.7909 277.3433 13.16593851211380
ONEWEB-0269             
1 48987U 21060W   25316.87875596  .00000099  00000+0  22512-3 0  9999
2 48987  87.9001 271.8844 0001694  81.9255 278.2068 13.16594161211168
ONEWEB-0270             
1 48988U 21060X   25316.82017461  .00000056  00000+0  11284-3 0  9991
2 48988  87.9011 271.8730 0002329  82.4459 277.6936 13.16594200211196
ONEWEB-0271             
1 48989U 21060Y   25316.27551503  .00000101  00000+0  22943-3 0  9996
2 48989  87.9019 271.9684 0002108  86.4504 273.6868 13.16592257211127
ONEWEB-0272             
1 48990U 21060Z   25316.82967073 -.00002252  00000+0 -59273-2 0  9998
2 48990  87.8999 271.8783 0001478  69.9362 290.1928 13.16575349211147
ONEWEB-0273             
1 48991U 21060AA  25316.85184101  .00000049  00000+0  94992-4 0  9994
2 48991  87.9010 271.8663 0002051  82.1300 278.0064 13.16593989211121
ONEWEB-0274             
1 48992U 21060AB  25316.80115580  .00000108  00000+0  24920-3 0  9994
2 48992  87.9000 271.9023 0001726  92.6193 267.5135 13.16596564211153
